[{"OBJECT_NAME":"PAKTES 1A","OBJECT_ID":"2018-056A","EPOCH":"2026-03-10T00:00:36.622368","MEAN_MOTION":14.98554284,"ECCENTRICITY":0.00218522,"INCLINATION":98.1121,"RA_OF_ASC_NODE":221.3801,"ARG_OF_PERICENTER":79.2607,"MEAN_ANOMALY":281.1073,"EPHEMERIS_TYPE":0,"CLASSIFICATION_TYPE":"U","NORAD_CAT_ID":43529,"ELEMENT_SET_NO":999,"REV_AT_EPOCH":41706,"BSTAR":0.00036888675,"MEAN_MOTION_DOT":4.376e-5,"MEAN_MOTION_DDOT":0},{"OBJECT_NAME":"STARLINK-6318","OBJECT_ID":"2023-065AD","EPOCH":"2026-03-09T10:15:43.273152","MEAN_MOTION":15.03004751,"ECCENTRICITY":5.141e-5,"INCLINATION":42.9979,"RA_OF_ASC_NODE":185.8718,"ARG_OF_PERICENTER":157.0339,"MEAN_ANOMALY":203.0526,"EPHEMERIS_TYPE":0,"CLASSIFICATION_TYPE":"U","NORAD_CAT_ID":56530,"ELEMENT_SET_NO":999,"REV_AT_EPOCH":15688,"BSTAR":0.0042810329,"MEAN_MOTION_DOT":0.00058843,"MEAN_MOTION_DDOT":0}]
